{
  "type": "FeatureCollection",
  "features": [
    {
      "type": "Feature",
      "properties": {
        "norad_id": 43260,
        "name": "GAOFEN-1 03",
        "group": "resource",
        "lat": 51.44468783381545,
        "lon": 27.87423675596009,
        "alt_km": 635.14542848374,
        "timestamp": "2025-12-06T11:28:10.686854+00:00",
        "meta_object_name": "GAOFEN-1 03",
        "meta_object_id": "2018-031B",
        "meta_epoch": "2025-12-05T22:13:18.888384",
        "meta_mean_motion": 14.76414581,
        "meta_eccentricity": 0.00024268,
        "meta_inclination": 98.0807,
        "meta_ra_of_asc_node": 37.5903,
        "meta_arg_of_pericenter": 350.4117,
        "meta_mean_anomaly": 9.7046,
        "meta_ephemeris_type": 0,
        "meta_classification_type": "U",
        "meta_norad_cat_id": 43260,
        "meta_element_set_no": 999,
        "meta_rev_at_epoch": 41417,
        "meta_bstar": 0.00028282176,
        "meta_mean_motion_dot": 1.914e-05,
        "meta_mean_motion_ddot": 0,
        "tle_line1": "1 43260U 18031B   25339.92591306  .00001914  00000+0  28282-3 0  9994",
        "tle_line2": "2 43260  98.0807  37.5903 0002426 350.4117   9.7046 14.76414581414175"
      },
      "geometry": {
        "type": "Point",
        "coordinates": [
          27.87423675596009,
          51.44468783381545
        ]
      }
    },
    {
      "type": "Feature",
      "properties": {
        "norad_id": 43262,
        "name": "GAOFEN-1 04",
        "group": "resource",
        "lat": -1.417794377817297,
        "lon": -141.8905656039391,
        "alt_km": 644.2589056745619,
        "timestamp": "2025-12-06T11:28:10.686864+00:00",
        "meta_object_name": "GAOFEN-1 04",
        "meta_object_id": "2018-031D",
        "meta_epoch": "2025-12-05T23:15:55.533600",
        "meta_mean_motion": 14.76428138,
        "meta_eccentricity": 0.00012576,
        "meta_inclination": 98.0817,
        "meta_ra_of_asc_node": 37.8022,
        "meta_arg_of_pericenter": 62.3188,
        "meta_mean_anomaly": 297.8148,
        "meta_ephemeris_type": 0,
        "meta_classification_type": "U",
        "meta_norad_cat_id": 43262,
        "meta_element_set_no": 999,
        "meta_rev_at_epoch": 41417,
        "meta_bstar": 0.00029037518,
        "meta_mean_motion_dot": 1.967e-05,
        "meta_mean_motion_ddot": 0,
        "tle_line1": "1 43262U 18031D   25339.96939275  .00001967  00000+0  29038-3 0  9999",
        "tle_line2": "2 43262  98.0817  37.8022 0001257  62.3188 297.8148 14.76428138414177"
      },
      "geometry": {
        "type": "Point",
        "coordinates": [
          -141.8905656039391,
          -1.417794377817297
        ]
      }
    },
    {
      "type": "Feature",
      "properties": {
        "norad_id": 43437,
        "name": "SENTINEL-3B",
        "group": "resource",
        "lat": 26.054530930159615,
        "lon": 41.49568987631468,
        "alt_km": 801.5383201891564,
        "timestamp": "2025-12-06T11:28:10.686874+00:00",
        "meta_object_name": "SENTINEL-3B",
        "meta_object_id": "2018-039A",
        "meta_epoch": "2025-12-05T21:52:53.329440",
        "meta_mean_motion": 14.26738795,
        "meta_eccentricity": 0.0001492,
        "meta_inclination": 98.6274,
        "meta_ra_of_asc_node": 45.1945,
        "meta_arg_of_pericenter": 109.4025,
        "meta_mean_anomaly": 250.7317,
        "meta_ephemeris_type": 0,
        "meta_classification_type": "U",
        "meta_norad_cat_id": 43437,
        "meta_element_set_no": 999,
        "meta_rev_at_epoch": 39656,
        "meta_bstar": 0.00014454336,
        "meta_mean_motion_dot": 3.06e-06,
        "meta_mean_motion_ddot": 0,
        "tle_line1": "1 43437U 18039A   25339.91172835  .00000306  00000+0  14454-3 0  9999",
        "tle_line2": "2 43437  98.6274  45.1945 0001492 109.4025 250.7317 14.26738795396560"
      },
      "geometry": {
        "type": "Point",
        "coordinates": [
          41.49568987631468,
          26.054530930159615
        ]
      }
    },
    {
      "type": "Feature",
      "properties": {
        "norad_id": 43461,
        "name": "GAOFEN-5 01",
        "group": "resource",
        "lat": -22.057909310808153,
        "lon": -53.218173384050225,
        "alt_km": 696.3221147543018,
        "timestamp": "2025-12-06T11:28:10.686884+00:00",
        "meta_object_name": "GAOFEN-5 01",
        "meta_object_id": "2018-043A",
        "meta_epoch": "2025-12-05T20:46:20.412192",
        "meta_mean_motion": 14.60398049,
        "meta_eccentricity": 0.0001405,
        "meta_inclination": 98.4315,
        "meta_ra_of_asc_node": 302.7132,
        "meta_arg_of_pericenter": 2.9741,
        "meta_mean_anomaly": 357.1466,
        "meta_ephemeris_type": 0,
        "meta_classification_type": "U",
        "meta_norad_cat_id": 43461,
        "meta_element_set_no": 999,
        "meta_rev_at_epoch": 40347,
        "meta_bstar": 0.00021309407,
        "meta_mean_motion_dot": 9.83e-06,
        "meta_mean_motion_ddot": 0,
        "tle_line1": "1 43461U 18043A   25339.86551403  .00000983  00000+0  21309-3 0  9995",
        "tle_line2": "2 43461  98.4315 302.7132 0001405   2.9741 357.1466 14.60398049403475"
      },
      "geometry": {
        "type": "Point",
        "coordinates": [
          -53.218173384050225,
          -22.057909310808153
        ]
      }
    },
    {
      "type": "Feature",
      "properties": {
        "norad_id": 43484,
        "name": "GAOFEN-6",
        "group": "resource",
        "lat": -29.963047804338387,
        "lon": 49.489529082943825,
        "alt_km": 649.7347808352706,
        "timestamp": "2025-12-06T11:28:10.686895+00:00",
        "meta_object_name": "GAOFEN-6",
        "meta_object_id": "2018-048A",
        "meta_epoch": "2025-12-05T20:58:07.889088",
        "meta_mean_motion": 14.76545942,
        "meta_eccentricity": 0.00133417,
        "meta_inclination": 97.8041,
        "meta_ra_of_asc_node": 44.3708,
        "meta_arg_of_pericenter": 83.8978,
        "meta_mean_anomaly": 276.3752,
        "meta_ephemeris_type": 0,
        "meta_classification_type": "U",
        "meta_norad_cat_id": 43484,
        "meta_element_set_no": 999,
        "meta_rev_at_epoch": 40486,
        "meta_bstar": 0.0001101151,
        "meta_mean_motion_dot": 7.19e-06,
        "meta_mean_motion_ddot": 0,
        "tle_line1": "1 43484U 18048A   25339.87370242  .00000719  00000+0  11012-3 0  9993",
        "tle_line2": "2 43484  97.8041  44.3708 0013341  83.8978 276.3752 14.76545942404866"
      },
      "geometry": {
        "type": "Point",
        "coordinates": [
          49.489529082943825,
          -29.963047804338387
        ]
      }
    },
    {
      "type": "Feature",
      "properties": {
        "norad_id": 43585,
        "name": "GAOFEN-11 01",
        "group": "resource",
        "lat": -55.127113685320566,
        "lon": 53.85373115985378,
        "alt_km": 424.29996383201524,
        "timestamp": "2025-12-06T11:28:10.686906+00:00",
        "meta_object_name": "GAOFEN-11 01",
        "meta_object_id": "2018-063A",
        "meta_epoch": "2025-12-05T23:18:22.287456",
        "meta_mean_motion": 15.48938311,
        "meta_eccentricity": 0.0004752,
        "meta_inclination": 97.1569,
        "meta_ra_of_asc_node": 42.9638,
        "meta_arg_of_pericenter": 343.6984,
        "meta_mean_anomaly": 16.4114,
        "meta_ephemeris_type": 0,
        "meta_classification_type": "U",
        "meta_norad_cat_id": 43585,
        "meta_element_set_no": 999,
        "meta_rev_at_epoch": 41037,
        "meta_bstar": 0.00039998496,
        "meta_mean_motion_dot": 0.00021543,
        "meta_mean_motion_ddot": 0,
        "tle_line1": "1 43585U 18063A   25339.97109129  .00021543  00000+0  39998-3 0  9998",
        "tle_line2": "2 43585  97.1569  42.9638 0004752 343.6984  16.4114 15.48938311410376"
      },
      "geometry": {
        "type": "Point",
        "coordinates": [
          53.85373115985378,
          -55.127113685320566
        ]
      }
    },
    {
      "type": "Feature",
      "properties": {
        "norad_id": 43613,
        "name": "ICESAT-2",
        "group": "resource",
        "lat": 29.059077362545086,
        "lon": 60.16216658100594,
        "alt_km": 479.02069449596183,
        "timestamp": "2025-12-06T11:28:10.686916+00:00",
        "meta_object_name": "ICESAT-2",
        "meta_object_id": "2018-070A",
        "meta_epoch": "2025-12-05T22:14:19.755456",
        "meta_mean_motion": 15.28142401,
        "meta_eccentricity": 0.00016216,
        "meta_inclination": 92.0054,
        "meta_ra_of_asc_node": 238.8978,
        "meta_arg_of_pericenter": 164.5281,
        "meta_mean_anomaly": 195.6018,
        "meta_ephemeris_type": 0,
        "meta_classification_type": "U",
        "meta_norad_cat_id": 43613,
        "meta_element_set_no": 999,
        "meta_rev_at_epoch": 40294,
        "meta_bstar": 0.00071193332,
        "meta_mean_motion_dot": 0.00019545,
        "meta_mean_motion_ddot": 0,
        "tle_line1": "1 43613U 18070A   25339.92661754  .00019545  00000+0  71193-3 0  9992",
        "tle_line2": "2 43613  92.0054 238.8978 0001621 164.5281 195.6018 15.28142401402948"
      },
      "geometry": {
        "type": "Point",
        "coordinates": [
          60.16216658100594,
          29.059077362545086
        ]
      }
    }
  ]
}